[{"OBJECT_NAME":"OBJECT M","OBJECT_ID":"2024-205M","EPOCH":"2026-03-09T22:23:47.520096","MEAN_MOTION":15.27663844,"ECCENTRICITY":0.00036602,"INCLINATION":97.3915,"RA_OF_ASC_NODE":144.193,"ARG_OF_PERICENTER":310.2554,"MEAN_ANOMALY":49.8364,"EPHEMERIS_TYPE":0,"CLASSIFICATION_TYPE":"U","NORAD_CAT_ID":61905,"ELEMENT_SET_NO":999,"REV_AT_EPOCH":7334,"BSTAR":0.00036391974,"MEAN_MOTION_DOT":9.771e-5,"MEAN_MOTION_DDOT":0},{"OBJECT_NAME":"STARLINK-35901","OBJECT_ID":"2025-294P","EPOCH":"2026-03-09T22:10:45.302016","MEAN_MOTION":15.27583945,"ECCENTRICITY":0.00014275,"INCLINATION":43.0016,"RA_OF_ASC_NODE":36.8681,"ARG_OF_PERICENTER":251.9076,"MEAN_ANOMALY":108.162,"EPHEMERIS_TYPE":0,"CLASSIFICATION_TYPE":"U","NORAD_CAT_ID":67043,"ELEMENT_SET_NO":999,"REV_AT_EPOCH":1483,"BSTAR":0.0015173573,"MEAN_MOTION_DOT":0.00041734,"MEAN_MOTION_DDOT":0}]
